{
"type": "FeatureCollection",
"name": "ledger",
"crs": { "type": "name", "properties": { "name": "urn:ogc:def:crs:EPSG::6668" } },
"features": [
{ "type": "Feature", "properties": { "pipe_id": "P00001", "install_year": 2012, "material": "DIP", "diameter_mm": 75, "length_m": 72.9, "district": "A" }, "geometry": { "type": "LineString", "coordinates": [ [ 137.105577071938313, 35.08100043020891 ], [ 137.104677189211799, 35.079893273161503 ] ] } },
{ "type": "Feature", "properties": { "pipe_id": "P00002", "install_year": 1977, "material": "PE", "diameter_mm": 300, "length_m": 30.4, "district": "C" }, "geometry": { "type": "LineString", "coordinates": [ [ 137.081191888777511, 35.088745518992148 ], [ 137.081213309929922, 35.086851662870885 ] ] } },
{ "type": "Feature", "properties": { "pipe_id": "P00003", "install_year": 1992, "material": "CIP", "diameter_mm": 200, "length_m": 22.9, "district": "B" }, "geometry": { "type": "LineString", "coordinates": [ [ 137.091127628329218, 35.114772012831722 ], [ 137.092162857797746, 35.113410650097229 ] ] } },
{ "type": "Feature", "properties": { "pipe_id": "P00004", "install_year": 1981, "material": "DIP", "diameter_mm": 400, "length_m": 66.7, "district": "B" }, "geometry": { "type": "LineString", "coordinates": [ [ 137.084088411060776, 35.095197092025494 ], [ 137.083524328582712, 35.09457291491541 ] ] } },
{ "type": "Feature", "properties": { "pipe_id": "P00005", "install_year": 1988, "material": "PE", "diameter_mm": 150, "length_m": 86.0, "district": "A" }, "geometry": { "type": "LineString", "coordinates": [ [ 137.083152007923132, 35.091727131256285 ], [ 137.083666567121099, 35.093268938248031 ] ] } },
{ "type": "Feature", "properties": { "pipe_id": "P00006", "install_year": 2020, "material": "DIP", "diameter_mm": 300, "length_m": 37.0, "district": "C" }, "geometry": { "type": "LineString", "coordinates": [ [ 137.106450532742713, 35.110922733631547 ], [ 137.108391418825363, 35.112344004515606 ] ] } },
{ "type": "Feature", "properties": { "pipe_id": "P00007", "install_year": 2009, "material": "DIP", "diameter_mm": 100, "length_m": 66.4, "district": "A" }, "geometry": { "type": "LineString", "coordinates": [ [ 137.113364417065611, 35.086506163886241 ], [ 137.112785499866533, 35.087186864583749 ] ] } },
{ "type": "Feature", "properties": { "pipe_id": "P00008", "install_year": 2000, "material": "VP", "diameter_mm": 250, "length_m": 101.9, "district": "A" }, "geometry": { "type": "LineString", "coordinates": [ [ 137.086536099750475, 35.095178217670309 ], [ 137.088494193153025, 35.095738216709726 ] ] } },
{ "type": "Feature", "properties": { "pipe_id": "P00009", "install_year": 1978, "material": "PE", "diameter_mm": 250, "length_m": 29.5, "district": "B" }, "geometry": { "type": "LineString", "coordinates": [ [ 137.08916192287856, 35.08128400975616 ], [ 137.088423735070791, 35.080354973260064 ] ] } },
{ "type": "Feature", "properties": { "pipe_id": "P00010", "install_year": 1980, "material": "PE", "diameter_mm": 200, "length_m": 90.9, "district": "B" }, "geometry": { "type": "LineString", "coordinates": [ [ 137.095825276042433, 35.116581903589626 ], [ 137.095660683452792, 35.115641424255621 ] ] } },
{ "type": "Feature", "properties": { "pipe_id": "P00011", "install_year": 2035, "material": "SP", "diameter_mm": 75, "length_m": 91.9, "district": "A" }, "geometry": { "type": "LineString", "coordinates": [ [ 137.115912915344097, 35.095976020205619 ], [ 137.114790198380717, 35.097966170631601 ] ] } },
{ "type": "Feature", "properties": { "pipe_id": "P00012", "install_year": 1989, "material": "SP", "diameter_mm": 400, "length_m": 65.8, "district": "C" }, "geometry": { "type": "LineString", "coordinates": [ [ 137.086113652773918, 35.086399280068896 ], [ 137.086835577627909, 35.086784916191824 ] ] } },
{ "type": "Feature", "properties": { "pipe_id": "P00013", "install_year": 1999, "material": "CIP", "diameter_mm": 250, "length_m": 17.8, "district": "B" }, "geometry": { "type": "LineString", "coordinates": [ [ 137.114431188089384, 35.080459240877715 ], [ 137.115314075366825, 35.081186082353824 ] ] } },
{ "type": "Feature", "properties": { "pipe_id": "P00014", "install_year": 1997, "material": "VP", "diameter_mm": 75, "length_m": 105.1, "district": "B" }, "geometry": { "type": "LineString", "coordinates": [ [ 137.086326310173774, 35.080129812644067 ], [ 137.087214678419002, 35.081008535319611 ] ] } },
{ "type": "Feature", "properties": { "pipe_id": "P00015", "install_year": 1975, "material": "PE", "diameter_mm": 50, "length_m": 73.9, "district": "B" }, "geometry": { "type": "LineString", "coordinates": [ [ 137.113666773926894, 35.100306515279108 ], [ 137.112462418333962, 35.099802170689472 ] ] } },
{ "type": "Feature", "properties": { "pipe_id": "P00016", "install_year": 1984, "material": "VP", "diameter_mm": 50, "length_m": 32.7, "district": "C" }, "geometry": { "type": "LineString", "coordinates": [ [ 137.080779069695438, 35.117163944650585 ], [ 137.08229395720673, 35.118490606768027 ] ] } },
{ "type": "Feature", "properties": { "pipe_id": "P00017", "install_year": 2013, "material": "PE", "diameter_mm": 100, "length_m": 19.8, "district": "B" }, "geometry": { "type": "LineString", "coordinates": [ [ 137.117877977811901, 35.083426138082714 ], [ 137.117821939665163, 35.081702988156586 ] ] } },
{ "type": "Feature", "properties": { "pipe_id": "P00018", "install_year": 1978, "material": "PE", "diameter_mm": 150, "length_m": 87.0, "district": "B" }, "geometry": { "type": "LineString", "coordinates": [ [ 137.117873947188201, 35.086605078358964 ], [ 137.117984642337888, 35.087031454028896 ] ] } },
{ "type": "Feature", "properties": { "pipe_id": "P00019", "install_year": 1972, "material": "VP", "diameter_mm": 150, "length_m": 12.4, "district": "A" }, "geometry": { "type": "LineString", "coordinates": [ [ 137.119805974266427, 35.105995122305579 ], [ 137.119558374602093, 35.106065425669719 ] ] } },
{ "type": "Feature", "properties": { "pipe_id": "P00020", "install_year": 2005, "material": "DIP", "diameter_mm": 150, "length_m": 12.8, "district": "A" }, "geometry": { "type": "LineString", "coordinates": [ [ 137.10353234873827, 35.089204589303861 ], [ 137.10241321827607, 35.087488561647895 ] ] } },
{ "type": "Feature", "properties": { "pipe_id": "P00021", "install_year": 1978, "material": "PE", "diameter_mm": 100, "length_m": 88.2, "district": "C" }, "geometry": { "type": "LineString", "coordinates": [ [ 137.114385416010151, 35.082834293995546 ], [ 137.113337434547617, 35.08351020510873 ] ] } },
{ "type": "Feature", "properties": { "pipe_id": "P00022", "install_year": 1971, "material": "DIP", "diameter_mm": 300, "length_m": 45.7, "district": "B" }, "geometry": { "type": "LineString", "coordinates": [ [ 137.10304846598882, 35.089719889695829 ], [ 137.102940357760588, 35.089348129541776 ] ] } },
{ "type": "Feature", "properties": { "pipe_id": "P00023", "install_year": 1971, "material": "DIP", "diameter_mm": 300, "length_m": 88.7, "district": "A" }, "geometry": { "type": "LineString", "coordinates": [ [ 137.098680986721462, 35.109163033978398 ], [ 137.099374444910637, 35.111099694823864 ] ] } },
{ "type": "Feature", "properties": { "pipe_id": "P00024", "install_year": 1982, "material": "SP", "diameter_mm": 150, "length_m": 105.6, "district": "A" }, "geometry": { "type": "LineString", "coordinates": [ [ 137.0899462533568, 35.087608356337633 ], [ 137.089740707548145, 35.087295882896967 ] ] } },
{ "type": "Feature", "properties": { "pipe_id": "P00025", "install_year": 1999, "material": "DIP", "diameter_mm": 75, "length_m": 111.5, "district": "A" }, "geometry": { "type": "LineString", "coordinates": [ [ 137.097725229802137, 35.114453964190474 ], [ 137.097926531051939, 35.112656317508574 ] ] } },
{ "type": "Feature", "properties": { "pipe_id": "P00026", "install_year": 1968, "material": "VP", "diameter_mm": 0, "length_m": 5.2, "district": "B" }, "geometry": { "type": "LineString", "coordinates": [ [ 137.086652444424146, 35.09942564501803 ], [ 137.085507433620933, 35.099029806188227 ] ] } },
{ "type": "Feature", "properties": { "pipe_id": "P00027", "install_year": 2011, "material": "PE", "diameter_mm": 400, "length_m": 22.8, "district": "B" }, "geometry": { "type": "LineString", "coordinates": [ [ 137.09060812232687, 35.111362824077943 ], [ 137.090428155796218, 35.111054854021901 ] ] } },
{ "type": "Feature", "properties": { "pipe_id": "P00028", "install_year": 1985, "material": "DIP", "diameter_mm": 50, "length_m": 72.2, "district": "C" }, "geometry": { "type": "LineString", "coordinates": [ [ 137.088708035936548, 35.082339331680295 ], [ 137.089650984651712, 35.080583161966203 ] ] } },
{ "type": "Feature", "properties": { "pipe_id": "P00029", "install_year": 2019, "material": "VP", "diameter_mm": 75, "length_m": 73.4, "district": "C" }, "geometry": { "type": "LineString", "coordinates": [ [ 137.116775485233291, 35.10124504541082 ], [ 137.115003003552204, 35.101276359398796 ] ] } },
{ "type": "Feature", "properties": { "pipe_id": "P00030", "install_year": 2002, "material": "PE", "diameter_mm": 50, "length_m": 76.2, "district": "B" }, "geometry": { "type": "LineString", "coordinates": [ [ 137.114472768078798, 35.09615102205273 ], [ 137.116239152587724, 35.096429723693284 ] ] } },
{ "type": "Feature", "properties": { "pipe_id": "P00031", "install_year": 2007, "material": "CIP", "diameter_mm": 150, "length_m": 35.5, "district": "A" }, "geometry": { "type": "LineString", "coordinates": [ [ 137.106294926578897, 35.102609076953762 ], [ 137.105560405962791, 35.101652139736174 ] ] } },
{ "type": "Feature", "properties": { "pipe_id": "P00032", "install_year": 1969, "material": "DIP", "diameter_mm": 400, "length_m": 76.4, "district": "C" }, "geometry": { "type": "LineString", "coordinates": [ [ 137.106867608918407, 35.091999883191953 ], [ 137.106132317703498, 35.093007341161609 ] ] } },
{ "type": "Feature", "properties": { "pipe_id": "P00033", "install_year": 2024, "material": "CIP", "diameter_mm": 75, "length_m": 106.1, "district": "B" }, "geometry": { "type": "LineString", "coordinates": [ [ 137.119843857914191, 35.082930428843987 ], [ 137.118696475163262, 35.081991230502986 ] ] } },
{ "type": "Feature", "properties": { "pipe_id": "P00034", "install_year": 2016, "material": "PE", "diameter_mm": 50, "length_m": 81.8, "district": "C" }, "geometry": { "type": "LineString", "coordinates": [ [ 137.091399495648659, 35.097527382920312 ], [ 137.091572367497719, 35.096737451492224 ] ] } },
{ "type": "Feature", "properties": { "pipe_id": "P00035", "install_year": 1972, "material": "DIP", "diameter_mm": 100, "length_m": 36.3, "district": "C" }, "geometry": { "type": "LineString", "coordinates": [ [ 137.09197515008799, 35.106535548598643 ], [ 137.093730870103684, 35.105072713056217 ] ] } },
{ "type": "Feature", "properties": { "pipe_id": "P00036", "install_year": 1997, "material": "SP", "diameter_mm": 200, "length_m": 109.1, "district": "A" }, "geometry": { "type": "LineString", "coordinates": [ [ 137.088425186192268, 35.093715211511729 ], [ 137.089175174707464, 35.095126862773299 ] ] } },
{ "type": "Feature", "properties": { "pipe_id": "P00037", "install_year": 2014, "material": "VP", "diameter_mm": 200, "length_m": 23.6, "district": "B" }, "geometry": { "type": "LineString", "coordinates": [ [ 137.083691938708512, 35.096943030902551 ], [ 137.082798659604407, 35.094957213658901 ] ] } },
{ "type": "Feature", "properties": { "pipe_id": "P00038", "install_year": 2021, "material": "VP", "diameter_mm": 50, "length_m": 101.0, "district": "C" }, "geometry": { "type": "LineString", "coordinates": [ [ 137.102067216845057, 35.097107476759227 ], [ 137.10010589564348, 35.095408452199521 ] ] } },
{ "type": "Feature", "properties": { "pipe_id": "P00039", "install_year": 2024, "material": "DIP", "diameter_mm": 250, "length_m": 29.2, "district": "A" }, "geometry": { "type": "LineString", "coordinates": [ [ 137.102101003869791, 35.097191468515234 ], [ 137.100268319302472, 35.096650074576544 ] ] } },
{ "type": "Feature", "properties": { "pipe_id": "P00040", "install_year": 2004, "material": "VP", "diameter_mm": 150, "length_m": 104.4, "district": "A" }, "geometry": { "type": "LineString", "coordinates": [ [ 137.106677336425406, 35.094147145384589 ], [ 137.106916870501976, 35.095645996278755 ] ] } },
{ "type": "Feature", "properties": { "pipe_id": "P00041", "install_year": 2024, "material": "SP", "diameter_mm": 150, "length_m": -3.0, "district": "C" }, "geometry": { "type": "LineString", "coordinates": [ [ 137.115256648186516, 35.080991454475928 ], [ 137.116202906073539, 35.080320196347714 ] ] } },
{ "type": "Feature", "properties": { "pipe_id": "P00042", "install_year": 2017, "material": "SP", "diameter_mm": 250, "length_m": 40.1, "district": "A" }, "geometry": { "type": "LineString", "coordinates": [ [ 137.084323825056117, 35.114886671316242 ], [ 137.085758198061455, 35.113776406186425 ] ] } },
{ "type": "Feature", "properties": { "pipe_id": "P00043", "install_year": 1969, "material": "CIP", "diameter_mm": 250, "length_m": 78.8, "district": "B" }, "geometry": { "type": "LineString", "coordinates": [ [ 137.088916941888215, 35.106401327309946 ], [ 137.088510805802485, 35.105515739554036 ] ] } },
{ "type": "Feature", "properties": { "pipe_id": "P00044", "install_year": 2021, "material": "CIP", "diameter_mm": 100, "length_m": 71.8, "district": "B" }, "geometry": { "type": "LineString", "coordinates": [ [ 137.107180724734405, 35.113746446530882 ], [ 137.106505324207262, 35.111856848671358 ] ] } },
{ "type": "Feature", "properties": { "pipe_id": "P00045", "install_year": 1992, "material": "PE", "diameter_mm": 75, "length_m": 49.3, "district": "C" }, "geometry": { "type": "LineString", "coordinates": [ [ 137.081530287894111, 35.103862850199512 ], [ 137.080913036340831, 35.105008562912325 ] ] } },
{ "type": "Feature", "properties": { "pipe_id": "P00046", "install_year": 2016, "material": "PE", "diameter_mm": 150, "length_m": 46.9, "district": "A" }, "geometry": { "type": "LineString", "coordinates": [ [ 137.087603150980073, 35.081775461348528 ], [ 137.087347381041894, 35.081855142742796 ] ] } },
{ "type": "Feature", "properties": { "pipe_id": "P00047", "install_year": 1972, "material": "CIP", "diameter_mm": 200, "length_m": 81.7, "district": "B" }, "geometry": { "type": "LineString", "coordinates": [ [ 137.117954979438849, 35.116830834248724 ], [ 137.118447601078628, 35.117484384153784 ] ] } },
{ "type": "Feature", "properties": { "pipe_id": "P00048", "install_year": 1989, "material": "VP", "diameter_mm": 200, "length_m": 51.7, "district": "A" }, "geometry": { "type": "LineString", "coordinates": [ [ 137.096096015482317, 35.09182620810104 ], [ 137.094605166678548, 35.091507993436132 ] ] } },
{ "type": "Feature", "properties": { "pipe_id": "P00049", "install_year": 1985, "material": "SP", "diameter_mm": 400, "length_m": 55.8, "district": "A" }, "geometry": { "type": "LineString", "coordinates": [ [ 137.092154997970738, 35.088407307395308 ], [ 137.093298033280661, 35.088833953677224 ] ] } },
{ "type": "Feature", "properties": { "pipe_id": "P00050", "install_year": 2007, "material": "DIP", "diameter_mm": 200, "length_m": 64.3, "district": "C" }, "geometry": { "type": "LineString", "coordinates": [ [ 137.100446959874972, 35.11174941596424 ], [ 137.102286287889712, 35.112693261747999 ] ] } },
{ "type": "Feature", "properties": { "pipe_id": "P00051", "install_year": 1984, "material": "VP", "diameter_mm": 150, "length_m": 21.9, "district": "A" }, "geometry": { "type": "LineString", "coordinates": [ [ 137.10477043221448, 35.083735488003022 ], [ 137.106578430864289, 35.082674962397128 ] ] } },
{ "type": "Feature", "properties": { "pipe_id": "P00052", "install_year": 1991, "material": "PE", "diameter_mm": 150, "length_m": 87.6, "district": "B" }, "geometry": { "type": "LineString", "coordinates": [ [ 137.089793701763142, 35.099005453768754 ], [ 137.09119265254165, 35.097296766685496 ] ] } },
{ "type": "Feature", "properties": { "pipe_id": "P00053", "install_year": 2013, "material": "DIP", "diameter_mm": 300, "length_m": 30.2, "district": "C" }, "geometry": { "type": "LineString", "coordinates": [ [ 137.099775086760417, 35.089759377583142 ], [ 137.100399318804875, 35.087781556855695 ] ] } },
{ "type": "Feature", "properties": { "pipe_id": "P00054", "install_year": 1994, "material": "VP", "diameter_mm": 400, "length_m": 81.8, "district": "C" }, "geometry": { "type": "LineString", "coordinates": [ [ 137.100718310017754, 35.08200873540563 ], [ 137.09971510313639, 35.08340208079504 ] ] } },
{ "type": "Feature", "properties": { "pipe_id": "P00055", "install_year": 2011, "material": "PE", "diameter_mm": 300, "length_m": 100.5, "district": "C" }, "geometry": { "type": "LineString", "coordinates": [ [ 137.103818092738777, 35.118001584337726 ], [ 137.105383796442027, 35.118452193628777 ] ] } },
{ "type": "Feature", "properties": { "pipe_id": "P00056", "install_year": 2013, "material": "dip", "diameter_mm": 200, "length_m": 93.1, "district": "C" }, "geometry": { "type": "LineString", "coordinates": [ [ 137.097836544483073, 35.086366316301721 ], [ 137.099282524122202, 35.08616659533071 ] ] } },
{ "type": "Feature", "properties": { "pipe_id": "P00057", "install_year": 1980, "material": "CIP", "diameter_mm": 250, "length_m": 41.8, "district": "C" }, "geometry": { "type": "LineString", "coordinates": [ [ 137.099383880682808, 35.089569834552584 ], [ 137.099143371055874, 35.090424014003027 ] ] } },
{ "type": "Feature", "properties": { "pipe_id": "P00058", "install_year": 1978, "material": "DIP", "diameter_mm": 300, "length_m": 51.9, "district": "C" }, "geometry": { "type": "LineString", "coordinates": [ [ 137.083223106306292, 35.086033226320524 ], [ 137.08275524747603, 35.084644447386829 ] ] } },
{ "type": "Feature", "properties": { "pipe_id": "P00059", "install_year": 2014, "material": "PE", "diameter_mm": 50, "length_m": 103.5, "district": "C" }, "geometry": { "type": "LineString", "coordinates": [ [ 137.098636972134045, 35.082490628423344 ], [ 137.099968536811417, 35.082048535674012 ] ] } },
{ "type": "Feature", "properties": { "pipe_id": "P00060", "install_year": 2019, "material": "SP", "diameter_mm": 150, "length_m": 61.1, "district": "B" }, "geometry": { "type": "LineString", "coordinates": [ [ 137.095215241157092, 35.08023584334336 ], [ 137.094622276367772, 35.0812497438436 ] ] } },
{ "type": "Feature", "properties": { "pipe_id": "P00061", "install_year": 1990, "material": "VP", "diameter_mm": 400, "length_m": 110.7, "district": "C" }, "geometry": { "type": "LineString", "coordinates": [ [ 137.097433439041851, 35.081160992797869 ], [ 137.096777957216631, 35.081877560337986 ] ] } },
{ "type": "Feature", "properties": { "pipe_id": "P00062", "install_year": 1970, "material": "SP", "diameter_mm": 100, "length_m": 104.7, "district": "A" }, "geometry": { "type": "LineString", "coordinates": [ [ 137.101364945181302, 35.116277154503472 ], [ 137.101732516283818, 35.116929153530819 ] ] } },
{ "type": "Feature", "properties": { "pipe_id": "P00063", "install_year": 2013, "material": "SP", "diameter_mm": 200, "length_m": 91.5, "district": "B" }, "geometry": { "type": "LineString", "coordinates": [ [ 137.082011385339541, 35.095164154567527 ], [ 137.080858026476392, 35.094471537787051 ] ] } },
{ "type": "Feature", "properties": { "pipe_id": "P00064", "install_year": 1987, "material": "VP", "diameter_mm": 75, "length_m": 94.8, "district": "C" }, "geometry": { "type": "LineString", "coordinates": [ [ 137.090090861271278, 35.083276249310465 ], [ 137.088168394419483, 35.083433925502156 ] ] } },
{ "type": "Feature", "properties": { "pipe_id": "P00065", "install_year": 2004, "material": "VP", "diameter_mm": 150, "length_m": 19.5, "district": "C" }, "geometry": { "type": "LineString", "coordinates": [ [ 137.081610325501629, 35.08124119995523 ], [ 137.080599458716563, 35.082598115340367 ] ] } },
{ "type": "Feature", "properties": { "pipe_id": "P00066", "install_year": 1988, "material": "VP", "diameter_mm": 75, "length_m": 94.4, "district": "A" }, "geometry": { "type": "LineString", "coordinates": [ [ 137.084575577844362, 35.117910280888665 ], [ 137.084435713778106, 35.116935255674917 ] ] } },
{ "type": "Feature", "properties": { "pipe_id": "P00067", "install_year": 2008, "material": "SP", "diameter_mm": 300, "length_m": 113.3, "district": "A" }, "geometry": { "type": "LineString", "coordinates": [ [ 137.118588830921368, 35.084323949986306 ], [ 137.116691544623365, 35.083571778963886 ] ] } },
{ "type": "Feature", "properties": { "pipe_id": "P00068", "install_year": 2014, "material": "CIP", "diameter_mm": 75, "length_m": 96.6, "district": "C" }, "geometry": { "type": "LineString", "coordinates": [ [ 137.083039859113711, 35.107624576637321 ], [ 137.083548828696109, 35.106032181859106 ] ] } },
{ "type": "Feature", "properties": { "pipe_id": "P00069", "install_year": 1997, "material": "CIP", "diameter_mm": 50, "length_m": 102.7, "district": "B" }, "geometry": { "type": "LineString", "coordinates": [ [ 137.111305413854438, 35.093888150612337 ], [ 137.111018925907388, 35.093370434117212 ] ] } },
{ "type": "Feature", "properties": { "pipe_id": "P00070", "install_year": 2010, "material": "VP", "diameter_mm": 300, "length_m": 25.3, "district": "C" }, "geometry": { "type": "LineString", "coordinates": [ [ 137.084221554825746, 35.118431502688587 ], [ 137.084763895250148, 35.119746331932596 ] ] } },
{ "type": "Feature", "properties": { "pipe_id": "P00071", "install_year": 1995, "material": "SP", "diameter_mm": 300, "length_m": 100.0, "district": "C" }, "geometry": { "type": "LineString", "coordinates": [ [ 137.118618949249509, 35.090803295855494 ], [ 137.119851746124738, 35.090955987481287 ] ] } },
{ "type": "Feature", "properties": { "pipe_id": "P00072", "install_year": 2021, "material": "SP", "diameter_mm": 150, "length_m": 91.3, "district": "C" }, "geometry": { "type": "LineString", "coordinates": [ [ 137.090735821521974, 35.114068526400771 ], [ 137.092058745597541, 35.112415177992993 ] ] } },
{ "type": "Feature", "properties": { "pipe_id": "P00073", "install_year": 1976, "material": "SP", "diameter_mm": 150, "length_m": 45.8, "district": "B" }, "geometry": { "type": "LineString", "coordinates": [ [ 137.104413268169225, 35.09515957216513 ], [ 137.102528068160296, 35.096563383510379 ] ] } },
{ "type": "Feature", "properties": { "pipe_id": "P00074", "install_year": 1965, "material": "PE", "diameter_mm": 150, "length_m": 14.8, "district": "C" }, "geometry": { "type": "LineString", "coordinates": [ [ 137.093613553726556, 35.115212799190331 ], [ 137.094418288727894, 35.114317873493356 ] ] } },
{ "type": "Feature", "properties": { "pipe_id": "P00075", "install_year": 2010, "material": "SP", "diameter_mm": 400, "length_m": 96.2, "district": "A" }, "geometry": { "type": "LineString", "coordinates": [ [ 137.096257124986806, 35.102207048463278 ], [ 137.0952184207313, 35.102111420906411 ] ] } },
{ "type": "Feature", "properties": { "pipe_id": "P00076", "install_year": 1988, "material": "SP", "diameter_mm": 250, "length_m": 53.9, "district": "C" }, "geometry": { "type": "LineString", "coordinates": [ [ 137.091769423252828, 35.096176045147118 ], [ 137.090742643908328, 35.096831885233506 ] ] } },
{ "type": "Feature", "properties": { "pipe_id": "P00077", "install_year": 1979, "material": "DIP", "diameter_mm": 150, "length_m": 41.3, "district": "C" }, "geometry": { "type": "LineString", "coordinates": [ [ 137.102015538910251, 35.09407242110457 ], [ 137.101830519961652, 35.093298913069965 ] ] } },
{ "type": "Feature", "properties": { "pipe_id": "P00078", "install_year": 1995, "material": "CIP", "diameter_mm": 200, "length_m": 117.8, "district": "A" }, "geometry": { "type": "LineString", "coordinates": [ [ 137.101434558615352, 35.110487584379364 ], [ 137.100175157985092, 35.109353122938877 ] ] } },
{ "type": "Feature", "properties": { "pipe_id": "P00079", "install_year": 1973, "material": "CIP", "diameter_mm": 50, "length_m": 117.0, "district": "C" }, "geometry": { "type": "LineString", "coordinates": [ [ 137.091849858530594, 35.094435242765975 ], [ 137.09105892888573, 35.095267316708821 ] ] } },
{ "type": "Feature", "properties": { "pipe_id": "P00080", "install_year": 1971, "material": "DIP", "diameter_mm": 200, "length_m": 59.0, "district": "B" }, "geometry": { "type": "LineString", "coordinates": [ [ 137.091685465782092, 35.117763584591835 ], [ 137.092236944402515, 35.118774753295 ] ] } },
{ "type": "Feature", "properties": { "pipe_id": "P00081", "install_year": 1972, "material": "DIP", "diameter_mm": 300, "length_m": 61.6, "district": "C" }, "geometry": { "type": "LineString", "coordinates": [ [ 137.093628237302397, 35.118619905725531 ], [ 137.09263815086436, 35.120066797584037 ] ] } },
{ "type": "Feature", "properties": { "pipe_id": "P00082", "install_year": 1984, "material": "DIP", "diameter_mm": 150, "length_m": 18.6, "district": "B" }, "geometry": { "type": "LineString", "coordinates": [ [ 137.105177828278073, 35.082144362971704 ], [ 137.103774618615972, 35.082395721360044 ] ] } },
{ "type": "Feature", "properties": { "pipe_id": "P00083", "install_year": 1993, "material": "SP", "diameter_mm": 200, "length_m": 103.9, "district": "B" }, "geometry": { "type": "LineString", "coordinates": [ [ 137.104252706049721, 35.111629633193736 ], [ 137.103155454597982, 35.111719923334256 ] ] } },
{ "type": "Feature", "properties": { "pipe_id": "P00084", "install_year": 2013, "material": "VP", "diameter_mm": 150, "length_m": 35.4, "district": "A" }, "geometry": { "type": "LineString", "coordinates": [ [ 137.092215209772775, 35.104841092842889 ], [ 137.092653733421741, 35.105801450064824 ] ] } },
{ "type": "Feature", "properties": { "pipe_id": "P00085", "install_year": 1993, "material": "PE", "diameter_mm": 400, "length_m": 38.5, "district": "A" }, "geometry": { "type": "LineString", "coordinates": [ [ 137.086282283735216, 35.086952541933059 ], [ 137.084582543210814, 35.08496324482347 ] ] } },
{ "type": "Feature", "properties": { "pipe_id": "P00086", "install_year": 1979, "material": "CIP", "diameter_mm": 150, "length_m": 53.9, "district": "C" }, "geometry": { "type": "LineString", "coordinates": [ [ 137.09152419558373, 35.091308734924496 ], [ 137.092962622509106, 35.089593453965108 ] ] } },
{ "type": "Feature", "properties": { "pipe_id": "P00087", "install_year": 1968, "material": "VP", "diameter_mm": 200, "length_m": 73.4, "district": "C" }, "geometry": { "type": "LineString", "coordinates": [ [ 137.08899237801063, 35.085959576043017 ], [ 137.088054907897202, 35.084528521184794 ] ] } },
{ "type": "Feature", "properties": { "pipe_id": "P00088", "install_year": 1990, "material": "CIP", "diameter_mm": 400, "length_m": 55.3, "district": "C" }, "geometry": { "type": "LineString", "coordinates": [ [ 137.11684770115869, 35.097566137946949 ], [ 137.116722493039788, 35.096782502709125 ] ] } },
{ "type": "Feature", "properties": { "pipe_id": "P00089", "install_year": 1970, "material": "VP", "diameter_mm": 50, "length_m": 120.0, "district": "C" }, "geometry": { "type": "LineString", "coordinates": [ [ 137.081594431367336, 35.097281146566431 ], [ 137.080883717700772, 35.096282618176076 ] ] } },
{ "type": "Feature", "properties": { "pipe_id": "P00090", "install_year": 1998, "material": "SP", "diameter_mm": 200, "length_m": 25.9, "district": "C" }, "geometry": { "type": "LineString", "coordinates": [ [ 137.112856849810328, 35.103049879384109 ], [ 137.11390928582702, 35.101750642295862 ] ] } },
{ "type": "Feature", "properties": { "pipe_id": "P00091", "install_year": 1991, "material": "CIP", "diameter_mm": 250, "length_m": 82.1, "district": "A" }, "geometry": { "type": "LineString", "coordinates": [ [ 137.097435399483061, 35.112569797781624 ], [ 137.099311620427329, 35.112449839361467 ] ] } },
{ "type": "Feature", "properties": { "pipe_id": "P00092", "install_year": 2017, "material": "PE", "diameter_mm": 50, "length_m": 57.3, "district": "B" }, "geometry": { "type": "LineString", "coordinates": [ [ 137.093192146543146, 35.107746946959338 ], [ 137.092345017724597, 35.109527721117594 ] ] } },
{ "type": "Feature", "properties": { "pipe_id": "P00093", "install_year": 2017, "material": "DIP", "diameter_mm": 400, "length_m": 52.5, "district": "A" }, "geometry": { "type": "LineString", "coordinates": [ [ 137.090095954037679, 35.084636864057238 ], [ 137.09118614574183, 35.086096506393446 ] ] } },
{ "type": "Feature", "properties": { "pipe_id": "P00094", "install_year": 1968, "material": "VP", "diameter_mm": 200, "length_m": 68.2, "district": "B" }, "geometry": { "type": "LineString", "coordinates": [ [ 137.100737575698417, 35.104905354904069 ], [ 137.100731548107944, 35.104673518726962 ] ] } },
{ "type": "Feature", "properties": { "pipe_id": "P00095", "install_year": 2003, "material": "VP", "diameter_mm": 100, "length_m": 40.7, "district": "A" }, "geometry": { "type": "LineString", "coordinates": [ [ 137.097524643802899, 35.107930001164888 ], [ 137.09601034813636, 35.109822588428173 ] ] } },
{ "type": "Feature", "properties": { "pipe_id": "P00096", "install_year": 1994, "material": "DIP", "diameter_mm": 100, "length_m": 62.3, "district": "C" }, "geometry": { "type": "LineString", "coordinates": [ [ 137.10209005636213, 35.083728368051261 ], [ 137.104059084919697, 35.085380087565198 ] ] } },
{ "type": "Feature", "properties": { "pipe_id": "P00097", "install_year": 1995, "material": "VP", "diameter_mm": 400, "length_m": 68.4, "district": "B" }, "geometry": { "type": "LineString", "coordinates": [ [ 137.091674462410452, 35.108216465197039 ], [ 137.091336423782195, 35.108146463504873 ] ] } },
{ "type": "Feature", "properties": { "pipe_id": "P00098", "install_year": 1969, "material": "CIP", "diameter_mm": 300, "length_m": 44.1, "district": "C" }, "geometry": { "type": "LineString", "coordinates": [ [ 137.087624414837904, 35.103975103947 ], [ 137.088609585019867, 35.102521137325361 ] ] } },
{ "type": "Feature", "properties": { "pipe_id": "P00099", "install_year": 2002, "material": "SP", "diameter_mm": 100, "length_m": 56.4, "district": "B" }, "geometry": { "type": "LineString", "coordinates": [ [ 137.090686906522677, 35.080102610374347 ], [ 137.091591110453123, 35.081452514064772 ] ] } },
{ "type": "Feature", "properties": { "pipe_id": "P00100", "install_year": 1985, "material": "VP", "diameter_mm": 150, "length_m": 70.8, "district": "A" }, "geometry": { "type": "LineString", "coordinates": [ [ 137.093804957667714, 35.102076696682836 ], [ 137.093978677919552, 35.101898075150302 ] ] } },
{ "type": "Feature", "properties": { "pipe_id": "P00101", "install_year": 2023, "material": "SP", "diameter_mm": 300, "length_m": 118.7, "district": "C" }, "geometry": { "type": "LineString", "coordinates": [ [ 137.114240519039498, 35.096431003821984 ], [ 137.113513224348424, 35.096322908822948 ] ] } },
{ "type": "Feature", "properties": { "pipe_id": "P00102", "install_year": 2002, "material": "CIP", "diameter_mm": 75, "length_m": 105.5, "district": "B" }, "geometry": { "type": "LineString", "coordinates": [ [ 137.119232725546397, 35.099813145984662 ], [ 137.117380803991779, 35.099822310585196 ] ] } },
{ "type": "Feature", "properties": { "pipe_id": "P00103", "install_year": 2020, "material": "VP", "diameter_mm": 75, "length_m": 59.0, "district": "B" }, "geometry": { "type": "LineString", "coordinates": [ [ 137.083988467909677, 35.116417667107861 ], [ 137.082049858301332, 35.114994288771726 ] ] } },
{ "type": "Feature", "properties": { "pipe_id": "P00104", "install_year": 2019, "material": "PE", "diameter_mm": 300, "length_m": 114.7, "district": "C" }, "geometry": { "type": "LineString", "coordinates": [ [ 137.093542449362047, 35.10770818394348 ], [ 137.094141795972376, 35.109115245112882 ] ] } },
{ "type": "Feature", "properties": { "pipe_id": "P00105", "install_year": 1969, "material": "VP", "diameter_mm": 200, "length_m": 119.7, "district": "C" }, "geometry": { "type": "LineString", "coordinates": [ [ 137.108748697008906, 35.110376072373377 ], [ 137.110238229078504, 35.108519668772729 ] ] } },
{ "type": "Feature", "properties": { "pipe_id": "P00106", "install_year": 1971, "material": "SP", "diameter_mm": 100, "length_m": 84.8, "district": "A" }, "geometry": { "type": "LineString", "coordinates": [ [ 137.083615173230754, 35.119133509128822 ], [ 137.084656652002735, 35.11994907244614 ] ] } },
{ "type": "Feature", "properties": { "pipe_id": "P00107", "install_year": 1974, "material": "VP", "diameter_mm": 300, "length_m": 70.1, "district": "A" }, "geometry": { "type": "LineString", "coordinates": [ [ 137.081839638747084, 35.11184573860649 ], [ 137.081013109850943, 35.111345102965593 ] ] } },
{ "type": "Feature", "properties": { "pipe_id": "P00108", "install_year": 1980, "material": "SP", "diameter_mm": 100, "length_m": 31.7, "district": "C" }, "geometry": { "type": "LineString", "coordinates": [ [ 137.086799345962731, 35.083158734026398 ], [ 137.088282704357312, 35.083637575500546 ] ] } },
{ "type": "Feature", "properties": { "pipe_id": "P00109", "install_year": 2022, "material": "CIP", "diameter_mm": 100, "length_m": 13.5, "district": "B" }, "geometry": { "type": "LineString", "coordinates": [ [ 137.090159093576546, 35.090213068326371 ], [ 137.088196683302357, 35.091431600634273 ] ] } },
{ "type": "Feature", "properties": { "pipe_id": "P00110", "install_year": 1994, "material": "CIP", "diameter_mm": 150, "length_m": 119.9, "district": "B" }, "geometry": { "type": "LineString", "coordinates": [ [ 137.119506067808743, 35.091966169964955 ], [ 137.121354184100028, 35.092727424014797 ] ] } },
{ "type": "Feature", "properties": { "pipe_id": "P00111", "install_year": 2009, "material": "CIP", "diameter_mm": 50, "length_m": 117.5, "district": "C" }, "geometry": { "type": "LineString", "coordinates": [ [ 137.084266130696875, 35.09525457190631 ], [ 137.083701967327187, 35.094438061467173 ] ] } },
{ "type": "Feature", "properties": { "pipe_id": "P00112", "install_year": 1968, "material": "PE", "diameter_mm": 400, "length_m": 100.8, "district": "B" }, "geometry": { "type": "LineString", "coordinates": [ [ 137.095832229636443, 35.080323918630462 ], [ 137.097292499227223, 35.08143716509354 ] ] } },
{ "type": "Feature", "properties": { "pipe_id": "P00113", "install_year": 1977, "material": "PE", "diameter_mm": 200, "length_m": 82.9, "district": "C" }, "geometry": { "type": "LineString", "coordinates": [ [ 137.111029639184125, 35.089204735638816 ], [ 137.112237367014302, 35.088080753794529 ] ] } },
{ "type": "Feature", "properties": { "pipe_id": "P00114", "install_year": 2005, "material": "DIP", "diameter_mm": 200, "length_m": 95.7, "district": "A" }, "geometry": { "type": "LineString", "coordinates": [ [ 137.1106988309798, 35.107234203767284 ], [ 137.109245947933772, 35.105622859486544 ] ] } },
{ "type": "Feature", "properties": { "pipe_id": "P00115", "install_year": 2012, "material": "SP", "diameter_mm": 100, "length_m": 28.1, "district": "C" }, "geometry": { "type": "LineString", "coordinates": [ [ 137.103182952214723, 35.109294390717572 ], [ 137.101543485717713, 35.108474832524088 ] ] } },
{ "type": "Feature", "properties": { "pipe_id": "P00116", "install_year": 1975, "material": "CIP", "diameter_mm": 400, "length_m": 116.2, "district": "B" }, "geometry": { "type": "LineString", "coordinates": [ [ 137.115058423868248, 35.094634301224609 ], [ 137.115065602917298, 35.093724410627459 ] ] } },
{ "type": "Feature", "properties": { "pipe_id": "P00117", "install_year": 1974, "material": "VP", "diameter_mm": 300, "length_m": 116.2, "district": "C" }, "geometry": { "type": "LineString", "coordinates": [ [ 137.109862374028665, 35.093548610152077 ], [ 137.108323052858452, 35.095400183323555 ] ] } },
{ "type": "Feature", "properties": { "pipe_id": "P00118", "install_year": 1994, "material": "CIP", "diameter_mm": 200, "length_m": 72.2, "district": "C" }, "geometry": { "type": "LineString", "coordinates": [ [ 137.094631001976211, 35.111627278743562 ], [ 137.092686676596628, 35.111773567976641 ] ] } },
{ "type": "Feature", "properties": { "pipe_id": "P00119", "install_year": 2021, "material": "PE", "diameter_mm": 250, "length_m": 110.3, "district": "A" }, "geometry": { "type": "LineString", "coordinates": [ [ 137.117611675671185, 35.084333844087972 ], [ 137.11654696328003, 35.082433942686556 ] ] } },
{ "type": "Feature", "properties": { "pipe_id": "P00120", "install_year": 2006, "material": "SP", "diameter_mm": 75, "length_m": 21.1, "district": "A" }, "geometry": { "type": "LineString", "coordinates": [ [ 137.105906095225578, 35.105416156895117 ], [ 137.10576316537086, 35.106220465557001 ] ] } },
{ "type": "Feature", "properties": { "pipe_id": "P00121", "install_year": 1973, "material": "SP", "diameter_mm": 400, "length_m": 47.7, "district": "C" }, "geometry": { "type": "LineString", "coordinates": [ [ 137.092174583374231, 35.099704984759128 ], [ 137.090563351368729, 35.101254021993242 ] ] } },
{ "type": "Feature", "properties": { "pipe_id": "P00122", "install_year": 2021, "material": "SP", "diameter_mm": 75, "length_m": 100.9, "district": "C" }, "geometry": { "type": "LineString", "coordinates": [ [ 137.107859359665497, 35.101607699817158 ], [ 137.108208721047703, 35.102514096419391 ] ] } },
{ "type": "Feature", "properties": { "pipe_id": "P00123", "install_year": 1993, "material": "SP", "diameter_mm": 150, "length_m": 103.4, "district": "A" }, "geometry": { "type": "LineString", "coordinates": [ [ 137.096324635427891, 35.118060861015245 ], [ 137.094455500575322, 35.117542980850182 ] ] } },
{ "type": "Feature", "properties": { "pipe_id": "P00124", "install_year": 1968, "material": "SP", "diameter_mm": 200, "length_m": 26.8, "district": "A" }, "geometry": { "type": "LineString", "coordinates": [ [ 137.11923710873296, 35.094693398339892 ], [ 137.120843893582645, 35.095272705578907 ] ] } },
{ "type": "Feature", "properties": { "pipe_id": "P00125", "install_year": 2005, "material": "PE", "diameter_mm": 50, "length_m": 10.8, "district": "B" }, "geometry": { "type": "LineString", "coordinates": [ [ 137.117960431530491, 35.112967643277265 ], [ 137.116327125225752, 35.111816066538957 ] ] } },
{ "type": "Feature", "properties": { "pipe_id": "P00126", "install_year": 2013, "material": "PE", "diameter_mm": 150, "length_m": 72.4, "district": "A" }, "geometry": { "type": "LineString", "coordinates": [ [ 137.089742755886562, 35.08503695541232 ], [ 137.090001067790183, 35.083311396023618 ] ] } },
{ "type": "Feature", "properties": { "pipe_id": "P00127", "install_year": 2019, "material": "VP", "diameter_mm": 100, "length_m": 67.1, "district": "A" }, "geometry": { "type": "LineString", "coordinates": [ [ 137.093142382137273, 35.085902167197659 ], [ 137.094744506279795, 35.08391350940358 ] ] } },
{ "type": "Feature", "properties": { "pipe_id": "P00128", "install_year": 2015, "material": "VP", "diameter_mm": 250, "length_m": 6.8, "district": "B" }, "geometry": { "type": "LineString", "coordinates": [ [ 137.08439705391558, 35.11465791554027 ], [ 137.082924266833828, 35.114090884657138 ] ] } },
{ "type": "Feature", "properties": { "pipe_id": "P00129", "install_year": 1995, "material": "SP", "diameter_mm": 250, "length_m": 64.0, "district": "A" }, "geometry": { "type": "LineString", "coordinates": [ [ 137.08209596071444, 35.109668722278165 ], [ 137.082200302820837, 35.110651383378304 ] ] } },
{ "type": "Feature", "properties": { "pipe_id": "P00130", "install_year": 2023, "material": "PE", "diameter_mm": 200, "length_m": 57.7, "district": "A" }, "geometry": { "type": "LineString", "coordinates": [ [ 137.098080216796347, 35.088861990256731 ], [ 137.09854064414148, 35.089770962245389 ] ] } },
{ "type": "Feature", "properties": { "pipe_id": "P00131", "install_year": 1996, "material": "SP", "diameter_mm": 75, "length_m": 108.4, "district": "B" }, "geometry": { "type": "LineString", "coordinates": [ [ 137.082433016299774, 35.099159276439934 ], [ 137.082039485317836, 35.099903666424183 ] ] } },
{ "type": "Feature", "properties": { "pipe_id": "P00132", "install_year": 2000, "material": "CIP", "diameter_mm": 300, "length_m": 119.4, "district": "C" }, "geometry": { "type": "LineString", "coordinates": [ [ 137.104331896945325, 35.082627289332805 ], [ 137.103431960943567, 35.083159596230011 ] ] } },
{ "type": "Feature", "properties": { "pipe_id": "P00133", "install_year": 1972, "material": "PE", "diameter_mm": 150, "length_m": 54.5, "district": "A" }, "geometry": { "type": "LineString", "coordinates": [ [ 137.091795909837998, 35.100222042979432 ], [ 137.091516707141295, 35.101394427351842 ] ] } },
{ "type": "Feature", "properties": { "pipe_id": "P00134", "install_year": 1985, "material": "SP", "diameter_mm": 250, "length_m": 81.5, "district": "B" }, "geometry": { "type": "LineString", "coordinates": [ [ 137.096552542847064, 35.113096768991205 ], [ 137.096147463584089, 35.114015219021745 ] ] } },
{ "type": "Feature", "properties": { "pipe_id": "P00135", "install_year": 1970, "material": "DIP", "diameter_mm": 300, "length_m": 16.1, "district": "C" }, "geometry": { "type": "LineString", "coordinates": [ [ 137.118143700704763, 35.107472841418684 ], [ 137.118040772247127, 35.105837740572149 ] ] } },
{ "type": "Feature", "properties": { "pipe_id": "P00136", "install_year": 2000, "material": "CIP", "diameter_mm": 75, "length_m": 52.2, "district": "C" }, "geometry": { "type": "LineString", "coordinates": [ [ 137.09490587437503, 35.085204618142953 ], [ 137.093145798286912, 35.087031116638343 ] ] } },
{ "type": "Feature", "properties": { "pipe_id": "P00137", "install_year": 1983, "material": "PE", "diameter_mm": 200, "length_m": 45.4, "district": "C" }, "geometry": { "type": "LineString", "coordinates": [ [ 137.11764519475409, 35.096917474230558 ], [ 137.119308569437976, 35.095123258550451 ] ] } },
{ "type": "Feature", "properties": { "pipe_id": "P00138", "install_year": 1987, "material": "PE", "diameter_mm": 250, "length_m": 18.2, "district": "B" }, "geometry": { "type": "LineString", "coordinates": [ [ 137.100296501878717, 35.08618920703433 ], [ 137.100225259463542, 35.08757830642687 ] ] } },
{ "type": "Feature", "properties": { "pipe_id": "P00139", "install_year": 2017, "material": "PE", "diameter_mm": 50, "length_m": 75.0, "district": "C" }, "geometry": { "type": "LineString", "coordinates": [ [ 137.102964000173245, 35.112288854846092 ], [ 137.104344620818551, 35.114187041254596 ] ] } },
{ "type": "Feature", "properties": { "pipe_id": "P00140", "install_year": 1984, "material": "CIP", "diameter_mm": 250, "length_m": 5.7, "district": "A" }, "geometry": { "type": "LineString", "coordinates": [ [ 137.113178431598385, 35.090697909006167 ], [ 137.111900095886227, 35.091508704097627 ] ] } },
{ "type": "Feature", "properties": { "pipe_id": "P00141", "install_year": 1966, "material": "DIP", "diameter_mm": 150, "length_m": 48.3, "district": "B" }, "geometry": { "type": "LineString", "coordinates": [ [ 137.102652843790452, 35.096031373759985 ], [ 137.101220342407061, 35.096564061810604 ] ] } },
{ "type": "Feature", "properties": { "pipe_id": "P00142", "install_year": 2001, "material": "PE", "diameter_mm": 75, "length_m": 106.6, "district": "A" }, "geometry": { "type": "LineString", "coordinates": [ [ 137.093635839270775, 35.094802123699083 ], [ 137.094522223141752, 35.095909466178952 ] ] } },
{ "type": "Feature", "properties": { "pipe_id": "P00143", "install_year": 2007, "material": "SP", "diameter_mm": 400, "length_m": 74.8, "district": "B" }, "geometry": { "type": "LineString", "coordinates": [ [ 137.08629639588429, 35.104713527277042 ], [ 137.086992270726739, 35.103801938651223 ] ] } },
{ "type": "Feature", "properties": { "pipe_id": "P00144", "install_year": 1983, "material": "PE", "diameter_mm": 400, "length_m": 65.6, "district": "B" }, "geometry": { "type": "LineString", "coordinates": [ [ 137.09092667377459, 35.110197725746737 ], [ 137.089381943807041, 35.109917380280329 ] ] } },
{ "type": "Feature", "properties": { "pipe_id": "P00145", "install_year": 1984, "material": "VP", "diameter_mm": 100, "length_m": 92.9, "district": "B" }, "geometry": { "type": "LineString", "coordinates": [ [ 137.08181669450417, 35.095810535843505 ], [ 137.082213994331937, 35.093841284187107 ] ] } },
{ "type": "Feature", "properties": { "pipe_id": "P00146", "install_year": 1989, "material": "PE", "diameter_mm": 150, "length_m": 62.5, "district": "C" }, "geometry": { "type": "LineString", "coordinates": [ [ 137.093124894237519, 35.080309196262775 ], [ 137.094112950731244, 35.07901197547028 ] ] } },
{ "type": "Feature", "properties": { "pipe_id": "P00147", "install_year": 1966, "material": "SP", "diameter_mm": 75, "length_m": 104.1, "district": "C" }, "geometry": { "type": "LineString", "coordinates": [ [ 137.112248007462654, 35.082883019863687 ], [ 137.113695064910758, 35.08105222890994 ] ] } },
{ "type": "Feature", "properties": { "pipe_id": "P00148", "install_year": 1990, "material": "DIP", "diameter_mm": 250, "length_m": 24.8, "district": "C" }, "geometry": { "type": "LineString", "coordinates": [ [ 137.097171371452021, 35.096176915380212 ], [ 137.09773193812822, 35.095334976202558 ] ] } },
{ "type": "Feature", "properties": { "pipe_id": "P00149", "install_year": 1971, "material": "VP", "diameter_mm": 300, "length_m": 72.7, "district": "C" }, "geometry": { "type": "LineString", "coordinates": [ [ 137.098403876075736, 35.107584401643209 ], [ 137.097851286840665, 35.107331248761483 ] ] } },
{ "type": "Feature", "properties": { "pipe_id": "P00150", "install_year": 2014, "material": "VP", "diameter_mm": 75, "length_m": 63.7, "district": "A" }, "geometry": { "type": "LineString", "coordinates": [ [ 137.083145883499299, 35.11482097664782 ], [ 137.08412910280515, 35.113707264883395 ] ] } },
{ "type": "Feature", "properties": { "pipe_id": "P00151", "install_year": 2017, "material": "VP", "diameter_mm": 150, "length_m": 16.8, "district": "B" }, "geometry": { "type": "LineString", "coordinates": [ [ 137.101224192830898, 35.087756148250676 ], [ 137.102329105748197, 35.087160547190507 ] ] } },
{ "type": "Feature", "properties": { "pipe_id": "P00152", "install_year": 1976, "material": "SP", "diameter_mm": 400, "length_m": 91.8, "district": "C" }, "geometry": { "type": "LineString", "coordinates": [ [ 137.087890872112951, 35.104095959410927 ], [ 137.088931733295141, 35.104717995453001 ] ] } },
{ "type": "Feature", "properties": { "pipe_id": "P00153", "install_year": 2004, "material": "CIP", "diameter_mm": 250, "length_m": 22.4, "district": "A" }, "geometry": { "type": "LineString", "coordinates": [ [ 137.09795621027979, 35.116966170335431 ], [ 137.098214177413411, 35.117507363611672 ] ] } },
{ "type": "Feature", "properties": { "pipe_id": "P00154", "install_year": 1987, "material": "PE", "diameter_mm": 75, "length_m": 40.7, "district": "B" }, "geometry": { "type": "LineString", "coordinates": [ [ 137.09875684334105, 35.105255404801021 ], [ 137.099942162057658, 35.105621083828346 ] ] } },
{ "type": "Feature", "properties": { "pipe_id": "P00155", "install_year": 2019, "material": "DIP", "diameter_mm": 300, "length_m": 58.2, "district": "C" }, "geometry": { "type": "LineString", "coordinates": [ [ 137.081504289822846, 35.094749503979592 ], [ 137.080652597953247, 35.095328169857893 ] ] } },
{ "type": "Feature", "properties": { "pipe_id": "P00156", "install_year": 2001, "material": "VP", "diameter_mm": 250, "length_m": 74.6, "district": "C" }, "geometry": { "type": "LineString", "coordinates": [ [ 137.118169259068907, 35.109556841819249 ], [ 137.116333349924332, 35.111193041645542 ] ] } },
{ "type": "Feature", "properties": { "pipe_id": "P00157", "install_year": 1986, "material": "DIP", "diameter_mm": 100, "length_m": 9.5, "district": "C" }, "geometry": { "type": "LineString", "coordinates": [ [ 137.086034443067831, 35.082474948004048 ], [ 137.0844484505769, 35.084071455339874 ] ] } },
{ "type": "Feature", "properties": { "pipe_id": "P00158", "install_year": 1988, "material": "CIP", "diameter_mm": 300, "length_m": 52.0, "district": "B" }, "geometry": { "type": "LineString", "coordinates": [ [ 137.097510330972369, 35.097576871670505 ], [ 137.097601323113423, 35.096211856502428 ] ] } },
{ "type": "Feature", "properties": { "pipe_id": "P00159", "install_year": 1986, "material": "DIP", "diameter_mm": 300, "length_m": 37.7, "district": "C" }, "geometry": { "type": "LineString", "coordinates": [ [ 137.107155908822364, 35.08209462070144 ], [ 137.10767945512012, 35.081433218090481 ] ] } },
{ "type": "Feature", "properties": { "pipe_id": "P00160", "install_year": 1970, "material": "PE", "diameter_mm": 100, "length_m": 110.4, "district": "B" }, "geometry": { "type": "LineString", "coordinates": [ [ 137.114062650399376, 35.118576401146157 ], [ 137.114473453654028, 35.117177894455097 ] ] } },
{ "type": "Feature", "properties": { "pipe_id": "P00161", "install_year": 1970, "material": "CIP", "diameter_mm": 300, "length_m": 79.0, "district": "B" }, "geometry": { "type": "LineString", "coordinates": [ [ 137.118707860307694, 35.107939198512476 ], [ 137.118275692245049, 35.108319363425082 ] ] } },
{ "type": "Feature", "properties": { "pipe_id": "P00162", "install_year": 2008, "material": "PE", "diameter_mm": 75, "length_m": 79.3, "district": "B" }, "geometry": { "type": "LineString", "coordinates": [ [ 137.112527391352586, 35.106804655999788 ], [ 137.113843227244161, 35.107759754688303 ] ] } },
{ "type": "Feature", "properties": { "pipe_id": "P00163", "install_year": 1986, "material": "SP", "diameter_mm": 150, "length_m": 31.1, "district": "A" }, "geometry": { "type": "LineString", "coordinates": [ [ 137.100339539456911, 35.08072922151166 ], [ 137.099575003737158, 35.082533898766044 ] ] } },
{ "type": "Feature", "properties": { "pipe_id": "P00164", "install_year": 1999, "material": "PE", "diameter_mm": 50, "length_m": 81.1, "district": "C" }, "geometry": { "type": "LineString", "coordinates": [ [ 137.086197806917767, 35.091831684066186 ], [ 137.087350287612452, 35.091862442917083 ] ] } },
{ "type": "Feature", "properties": { "pipe_id": "P00165", "install_year": 2014, "material": "PE", "diameter_mm": 100, "length_m": 87.9, "district": "A" }, "geometry": { "type": "LineString", "coordinates": [ [ 137.085241961657175, 35.095068794832905 ], [ 137.08389095050552, 35.096394175059665 ] ] } },
{ "type": "Feature", "properties": { "pipe_id": "P00166", "install_year": 1983, "material": "SP", "diameter_mm": 150, "length_m": 66.4, "district": "B" }, "geometry": { "type": "LineString", "coordinates": [ [ 137.096434344459851, 35.107054516887544 ], [ 137.095384465265653, 35.106831311726765 ] ] } },
{ "type": "Feature", "properties": { "pipe_id": "P00167", "install_year": 2008, "material": "PE", "diameter_mm": 400, "length_m": 58.1, "district": "B" }, "geometry": { "type": "LineString", "coordinates": [ [ 137.118623865487763, 35.111374809583729 ], [ 137.120239762840299, 35.110150874288621 ] ] } },
{ "type": "Feature", "properties": { "pipe_id": "P00168", "install_year": 1977, "material": "PE", "diameter_mm": 100, "length_m": 105.4, "district": "A" }, "geometry": { "type": "LineString", "coordinates": [ [ 137.111124961489992, 35.100116267659502 ], [ 137.11079960479691, 35.098764500352488 ] ] } },
{ "type": "Feature", "properties": { "pipe_id": "P00169", "install_year": 2019, "material": "PE", "diameter_mm": 75, "length_m": 37.8, "district": "A" }, "geometry": { "type": "LineString", "coordinates": [ [ 137.105647161448161, 35.114964677802092 ], [ 137.105865324429857, 35.113375036729089 ] ] } },
{ "type": "Feature", "properties": { "pipe_id": "P00170", "install_year": 2023, "material": "VP", "diameter_mm": 400, "length_m": 106.7, "district": "A" }, "geometry": { "type": "LineString", "coordinates": [ [ 137.090911651983646, 35.116212248359133 ], [ 137.089501046607609, 35.115962138599912 ] ] } },
{ "type": "Feature", "properties": { "pipe_id": "P00171", "install_year": 1970, "material": "CIP", "diameter_mm": 150, "length_m": 8.2, "district": "A" }, "geometry": { "type": "LineString", "coordinates": [ [ 137.096595876232755, 35.09585815861881 ], [ 137.096091722183473, 35.095402823090986 ] ] } },
{ "type": "Feature", "properties": { "pipe_id": "P00172", "install_year": 1983, "material": "SP", "diameter_mm": 100, "length_m": 92.3, "district": "B" }, "geometry": { "type": "LineString", "coordinates": [ [ 137.113567051504447, 35.105998427371766 ], [ 137.114732574054386, 35.104548825722667 ] ] } },
{ "type": "Feature", "properties": { "pipe_id": "P00173", "install_year": 2018, "material": "VP", "diameter_mm": 300, "length_m": 17.8, "district": "B" }, "geometry": { "type": "LineString", "coordinates": [ [ 137.097944058959285, 35.080210047932226 ], [ 137.096260962044369, 35.079233743645972 ] ] } },
{ "type": "Feature", "properties": { "pipe_id": "P00174", "install_year": 2004, "material": "SP", "diameter_mm": 75, "length_m": 17.7, "district": "B" }, "geometry": { "type": "LineString", "coordinates": [ [ 137.08950560906564, 35.08487393380635 ], [ 137.08845936707948, 35.085429740735037 ] ] } },
{ "type": "Feature", "properties": { "pipe_id": "P00175", "install_year": 1974, "material": "CIP", "diameter_mm": 300, "length_m": 5.2, "district": "B" }, "geometry": { "type": "LineString", "coordinates": [ [ 137.103869561712742, 35.080657414088236 ], [ 137.103931064633571, 35.079625166625917 ] ] } },
{ "type": "Feature", "properties": { "pipe_id": "P00176", "install_year": 1988, "material": "DIP", "diameter_mm": 50, "length_m": 49.9, "district": "B" }, "geometry": { "type": "LineString", "coordinates": [ [ 137.089622569552262, 35.096662703808342 ], [ 137.090280054759234, 35.095005159628293 ] ] } },
{ "type": "Feature", "properties": { "pipe_id": "P00177", "install_year": 1987, "material": "DIP", "diameter_mm": 250, "length_m": 32.7, "district": "C" }, "geometry": { "type": "LineString", "coordinates": [ [ 137.081741377006665, 35.095475252861092 ], [ 137.08123458655507, 35.096464519227347 ] ] } },
{ "type": "Feature", "properties": { "pipe_id": "P00178", "install_year": 1967, "material": "CIP", "diameter_mm": 250, "length_m": 98.6, "district": "A" }, "geometry": { "type": "LineString", "coordinates": [ [ 137.105130278499018, 35.110860054964398 ], [ 137.106071026438258, 35.110190129397886 ] ] } },
{ "type": "Feature", "properties": { "pipe_id": "P00179", "install_year": 1976, "material": "VP", "diameter_mm": 75, "length_m": 87.3, "district": "B" }, "geometry": { "type": "LineString", "coordinates": [ [ 137.11321534627055, 35.107387302656363 ], [ 137.115138623013706, 35.107301427342833 ] ] } },
{ "type": "Feature", "properties": { "pipe_id": "P00180", "install_year": 1985, "material": "CIP", "diameter_mm": 300, "length_m": 118.7, "district": "C" }, "geometry": { "type": "LineString", "coordinates": [ [ 137.081479351607982, 35.088063639713468 ], [ 137.082643788460899, 35.08960680125594 ] ] } },
{ "type": "Feature", "properties": { "pipe_id": "P00181", "install_year": 2020, "material": "DIP", "diameter_mm": 250, "length_m": 36.4, "district": "B" }, "geometry": { "type": "LineString", "coordinates": [ [ 137.098935990707076, 35.081464830861478 ], [ 137.099523592702269, 35.080609274443681 ] ] } },
{ "type": "Feature", "properties": { "pipe_id": "P00182", "install_year": 1986, "material": "VP", "diameter_mm": 400, "length_m": 84.6, "district": "B" }, "geometry": { "type": "LineString", "coordinates": [ [ 137.097478055324984, 35.096000870985783 ], [ 137.09723700185981, 35.09782678585708 ] ] } },
{ "type": "Feature", "properties": { "pipe_id": "P00183", "install_year": 1970, "material": "SP", "diameter_mm": 100, "length_m": 67.7, "district": "B" }, "geometry": { "type": "LineString", "coordinates": [ [ 137.116972418665085, 35.100771034141403 ], [ 137.118177011014694, 35.101679359438776 ] ] } },
{ "type": "Feature", "properties": { "pipe_id": "P00184", "install_year": 2010, "material": "SP", "diameter_mm": 100, "length_m": 84.3, "district": "B" }, "geometry": { "type": "LineString", "coordinates": [ [ 137.084103916311278, 35.093116796213664 ], [ 137.08328647610864, 35.092900459266062 ] ] } },
{ "type": "Feature", "properties": { "pipe_id": "P00185", "install_year": 1992, "material": "CIP", "diameter_mm": 50, "length_m": 13.6, "district": "C" }, "geometry": { "type": "LineString", "coordinates": [ [ 137.097885186386804, 35.109072575828442 ], [ 137.099531615310184, 35.109531981757236 ] ] } },
{ "type": "Feature", "properties": { "pipe_id": "P00186", "install_year": 1966, "material": "VP", "diameter_mm": 400, "length_m": 9.0, "district": "A" }, "geometry": { "type": "LineString", "coordinates": [ [ 137.096248409260312, 35.100523440778581 ], [ 137.097248001197357, 35.099163387684932 ] ] } },
{ "type": "Feature", "properties": { "pipe_id": "P00187", "install_year": 1967, "material": "PE", "diameter_mm": 100, "length_m": 83.1, "district": "B" }, "geometry": { "type": "LineString", "coordinates": [ [ 137.089439815216821, 35.105806515027979 ], [ 137.088888417546997, 35.107604383475497 ] ] } },
{ "type": "Feature", "properties": { "pipe_id": "P00188", "install_year": 1990, "material": "CIP", "diameter_mm": 200, "length_m": 33.7, "district": "A" }, "geometry": { "type": "LineString", "coordinates": [ [ 137.094880535138827, 35.110523378871946 ], [ 137.09517622225215, 35.110641218398094 ] ] } },
{ "type": "Feature", "properties": { "pipe_id": "P00189", "install_year": 1972, "material": "CIP", "diameter_mm": 200, "length_m": 86.0, "district": "A" }, "geometry": { "type": "LineString", "coordinates": [ [ 137.081036533634574, 35.087441921978908 ], [ 137.0811075147314, 35.089096092002158 ] ] } },
{ "type": "Feature", "properties": { "pipe_id": "P00190", "install_year": 1972, "material": "VP", "diameter_mm": 75, "length_m": 57.0, "district": "C" }, "geometry": { "type": "LineString", "coordinates": [ [ 137.119854604486193, 35.091423075107926 ], [ 137.121520520124363, 35.091387875888941 ] ] } },
{ "type": "Feature", "properties": { "pipe_id": "P00191", "install_year": 1985, "material": "CIP", "diameter_mm": 75, "length_m": 68.2, "district": "B" }, "geometry": { "type": "LineString", "coordinates": [ [ 137.097804447709706, 35.083511629644192 ], [ 137.098532164750708, 35.084893714520092 ] ] } },
{ "type": "Feature", "properties": { "pipe_id": "P00192", "install_year": 2005, "material": "VP", "diameter_mm": 250, "length_m": 63.5, "district": "A" }, "geometry": { "type": "LineString", "coordinates": [ [ 137.115653267294164, 35.114054482030127 ], [ 137.116500503710199, 35.115763779857019 ] ] } },
{ "type": "Feature", "properties": { "pipe_id": "P00193", "install_year": 1988, "material": "PE", "diameter_mm": 250, "length_m": 58.8, "district": "C" }, "geometry": { "type": "LineString", "coordinates": [ [ 137.119405301869193, 35.11168262694445 ], [ 137.118352246606349, 35.111658714694236 ] ] } },
{ "type": "Feature", "properties": { "pipe_id": "P00194", "install_year": 2010, "material": "SP", "diameter_mm": 300, "length_m": 93.5, "district": "C" }, "geometry": { "type": "LineString", "coordinates": [ [ 137.085190849188535, 35.115369857873389 ], [ 137.083453841609611, 35.114962497796476 ] ] } },
{ "type": "Feature", "properties": { "pipe_id": "P00195", "install_year": 2008, "material": "PE", "diameter_mm": 250, "length_m": 19.8, "district": "C" }, "geometry": { "type": "LineString", "coordinates": [ [ 137.08295002851645, 35.118895189260549 ], [ 137.083519382873988, 35.118695087243204 ] ] } },
{ "type": "Feature", "properties": { "pipe_id": "P00196", "install_year": 2023, "material": "DIP", "diameter_mm": 75, "length_m": 64.6, "district": "B" }, "geometry": { "type": "LineString", "coordinates": [ [ 137.105591757174665, 35.087278525462089 ], [ 137.1074568156304, 35.08700899860802 ] ] } },
{ "type": "Feature", "properties": { "pipe_id": "P00197", "install_year": 1998, "material": "CIP", "diameter_mm": 75, "length_m": 33.8, "district": "C" }, "geometry": { "type": "LineString", "coordinates": [ [ 137.086586283195601, 35.092906430046185 ], [ 137.087423611725711, 35.092290522375549 ] ] } },
{ "type": "Feature", "properties": { "pipe_id": "P00198", "install_year": 1970, "material": "PE", "diameter_mm": 100, "length_m": 73.1, "district": "C" }, "geometry": { "type": "LineString", "coordinates": [ [ 137.118254065081715, 35.09097804132854 ], [ 137.118754154527522, 35.091435754441775 ] ] } },
{ "type": "Feature", "properties": { "pipe_id": "P00199", "install_year": 2018, "material": "PE", "diameter_mm": 50, "length_m": 99.9, "district": "A" }, "geometry": { "type": "LineString", "coordinates": [ [ 137.086167770675189, 35.10634931493535 ], [ 137.087050301748945, 35.106769870566801 ] ] } },
{ "type": "Feature", "properties": { "pipe_id": "P00200", "install_year": 1978, "material": "PE", "diameter_mm": 300, "length_m": 76.1, "district": "A" }, "geometry": { "type": "LineString", "coordinates": [ [ 137.083248914195735, 35.117941874158817 ], [ 137.084333003670906, 35.117000497790151 ] ] } },
{ "type": "Feature", "properties": { "pipe_id": "P00071", "install_year": 1995, "material": "SP", "diameter_mm": 300, "length_m": 100.0, "district": "C" }, "geometry": { "type": "LineString", "coordinates": [ [ 137.118618949249509, 35.090803295855494 ], [ 137.119851746124738, 35.090955987481287 ] ] } }
]
}
